RANGE-A                 
1 43773U 18099R   26068.70590171  .00005536  00000+0  32166-3 0  9992
2 43773  97.4107 114.1927 0009674 340.4473  19.6386 15.12458640397457
STARLINK-4116           
1 53164U 22083AJ  26068.56887051  .00002477  00000+0  17364-3 0  9999
2 53164  53.2173 164.6678 0001109  98.2130 261.8987 15.08841290201343
